BEIDOU 3 (C01)          
1 36287U 10001A   21077.93167427 -.00000282  00000-0  00000-0 0  9997
2 36287   1.7396  41.9600 0003176  89.3055 161.2038  1.00269836 40944
BEIDOU 5 (C06)          
1 36828U 10036A   21077.56697707 -.00000151  00000-0  00000-0 0  9999
2 36828  54.1736 180.4403 0108694 234.4186  83.4181  1.00289502 38992
BEIDOU 6 (C04)          
1 37210U 10057A   21077.86380701 -.00000114  00000-0  00000-0 0  9993
2 37210   0.9845  55.3156 0003013 190.9682  41.2576  1.00270375 38065
BEIDOU 7 (C07)          
1 37256U 10068A   21077.25630326 -.00000189  00000-0  00000+0 0  9990
2 37256  51.0159 295.0826 0081975 216.1854 236.2953  1.00284637 37578
BEIDOU 8 (C08)          
1 37384U 11013A   21078.17297596 -.00000164  00000-0  00000+0 0  9996
2 37384  59.6541  58.8099 0053974 207.6824  92.4535  1.00279056 36459
BEIDOU 9 (C09)          
1 37763U 11038A   21077.95948712 -.00000082  00000-0  00000-0 0  9992
2 37763  54.4636 182.8637 0079389 224.4662 209.8120  1.00283786 35435
BEIDOU 10 (C10)         
1 37948U 11073A   21077.06156083 -.00000132  00000-0  00000-0 0  9996
2 37948  51.1164 294.6946 0069091 214.6461 144.7334  1.00273552 34176
BEIDOU 11 (C05)         
1 38091U 12008A   21077.75535409  .00000056  00000-0  00000+0 0  9997
2 38091   1.3625  64.8578 0008247 302.7928 139.4720  1.00274404 33262
BEIDOU 12 (C11)         
1 38250U 12018A   21077.66397243 -.00000098  00000-0  00000-0 0  9995
2 38250  56.7571   8.6094 0022813 252.5554  11.1561  1.86234229 60594
BEIDOU 13 (C12)         
1 38251U 12018B   21077.59936844 -.00000098  00000-0  00000-0 0  9994
2 38251  56.6795   7.9661 0014080 258.7364   6.0969  1.86234157 60593
BEIDOU 15 (C14)         
1 38775U 12050B   21077.45948421  .00000002  00000-0  00000-0 0  9994
2 38775  55.1648 127.0510 0014764 315.8962  52.5258  1.86232236 57971
BEIDOU 16 (C02)         
1 38953U 12059A   21077.94376964 -.00000175  00000-0  00000-0 0  9994
2 38953   1.7517  84.8252 0009692 276.3579 239.2594  1.00269381 30833
BEIDOU 17 (C31)         
1 40549U 15019A   21078.03806753 -.00000162  00000-0  00000+0 0  9997
2 40549  52.6363 318.0340 0036408 187.5854 140.7599  1.00285812 21866
BEIDOU 18 (C57)         
1 40748U 15037A   21077.61841433 -.00000100  00000-0  00000-0 0  9998
2 40748  55.9448   7.1067 0005504 349.9001 197.6986  1.86233292 38420
BEIDOU 19 (C58)         
1 40749U 15037B   21077.52242916 -.00000100  00000-0  00000-0 0  9990
2 40749  55.9460   7.0972 0007119 318.7145 301.0331  1.86232200 38418
BEIDOU 20 (C18)         
1 40938U 15053A   21078.08358118 -.00000091  00000-0  00000+0 0  9990
2 40938  52.2013 281.0896 0046977 189.1424 190.7561  1.00257684 20155
BEIDOU IGSO-6 (C13)     
1 41434U 16021A   21077.44216072 -.00000132  00000-0  00000+0 0  9995
2 41434  57.4349  57.5966 0040310 216.7451 156.7428  1.00287663 18265
BEIDOU-2 G7 (C03)       
1 41586U 16037A   21077.81206464 -.00000354  00000-0  00000-0 0  9992
2 41586   1.5101  64.4875 0009673   9.0673 145.7833  1.00266647 17571
BEIDOU-3 M1 (C19)       
1 43001U 17069A   21077.35430663  .00000002  00000-0  00000-0 0  9990
2 43001  55.3202 126.9939 0010871 285.9944 168.1795  1.86231644 22909
BEIDOU-3 M2 (C20)       
1 43002U 17069B   21077.29210476  .00000002  00000-0  00000+0 0  9991
2 43002  55.3178 127.0318 0009344 304.7867 151.2703  1.86231383 22892
BEIDOU-3 M3 (C27)       
1 43107U 18003A   21077.68234946 -.00000100  00000-0  00000+0 0  9997
2 43107  55.3853   8.2263 0004973  29.1241 134.4450  1.86232415 21667
BEIDOU-3 M4 (C28)       
1 43108U 18003B   21077.67267817 -.00000100  00000-0  00000-0 0  9991
2 43108  55.3793   8.2168 0003610 266.2938 295.9732  1.86232411 21661
BEIDOU-3 M5 (C21)       
1 43207U 18018A   21077.28147011  .00000002  00000-0  00000-0 0  9997
2 43207  55.2808 127.1263 0006292 322.8003  37.2341  1.86231545 21047
BEIDOU-3 M6 (C22)       
1 43208U 18018B   21077.34815606  .00000002  00000-0  00000-0 0  9997
2 43208  55.2789 127.1286 0008935 295.2238  64.7617  1.86231710 21045
BEIDOU-3 M7 (C29)       
1 43245U 18029A   21077.69248216 -.00000101  00000-0  00000-0 0  9996
2 43245  55.3206   6.0218 0001655 329.4338 111.0775  1.86232526 20208
BEIDOU-3 M8 (C30)       
1 43246U 18029B   21077.09622625 -.00000102  00000-0  10000-3 0  9996
2 43246  55.3175   6.0746 0005424 342.9850 103.8747  1.86232680 20183
BEIDOU IGSO-7 (C16)     
1 43539U 18057A   21077.63949328 -.00000130  00000-0  00000-0 0  9991
2 43539  55.0553 179.7649 0037712 216.2033 121.2658  1.00296852  9938
BEIDOU-3 M9 (C23)       
1 43581U 18062A   21077.69018047  .00000040  00000-0  00000-0 0  9994
2 43581  54.4408 247.7101 0001960 312.0254  22.9254  1.86231723 17930
BEIDOU-3 M10 (C24)      
1 43582U 18062B   21077.61094274  .00000040  00000-0  00000-0 0  9993
2 43582  54.4399 247.7032 0006143  17.1566 355.9520  1.86232022 17949
BEIDOU-3 M11 (C25)      
1 43602U 18067A   21077.53161363  .00000039  00000-0  00000-0 0  9994
2 43602  54.5168 246.2810 0007360   6.9652 355.3076  1.86231561 17430
BEIDOU-3 M12 (C26)      
1 43603U 18067B   21077.67601082  .00000041  00000-0  00000-0 0  9990
2 43603  54.5131 246.2453 0004489   2.0067   7.5580  1.86231516 17458
BEIDOU-3 M13 (C32)      
1 43622U 18072A   21078.16661135  .00000002  00000-0  00000+0 0  9993
2 43622  55.2434 126.6672 0007442 282.3781  86.3586  1.86231527 16974
BEIDOU-3 M14 (C33)      
1 43623U 18072B   21078.12396125  .00000002  00000-0  00000+0 0  9994
2 43623  55.2438 126.6605 0005723 302.8232 127.5520  1.86231506 16977
BEIDOU-3 M15 (C34)      
1 43647U 18078A   21076.44321532 -.00000104  00000-0  10000-3 0  9998
2 43647  55.2137   6.2630 0007695 348.3882 290.3396  1.86232673 16444
BEIDOU-3 M16 (C35)      
1 43648U 18078B   21076.03937076 -.00000105  00000-0  10000-3 0  9991
2 43648  55.2091   6.2836 0005531 355.3583 281.2277  1.86232193 16450
BEIDOU-3 G1 (C59)       
1 43683U 18085A   21077.93158704 -.00000279  00000-0  00000-0 0  9999
2 43683   1.2092 237.3234 0002758  50.0904   4.6495  1.00275466  8854
BEIDOU-3 M17 (C36)      
1 43706U 18093A   21077.51655571  .00000039  00000-0  00000-0 0  9995
2 43706  54.5210 247.5682 0007553 277.2949 166.2018  1.86231724 15838
BEIDOU-3 M18 (C37)      
1 43707U 18093B   21077.69771171  .00000041  00000-0  00000-0 0  9993
2 43707  54.5212 247.5529 0006959 309.0549 346.6684  1.86231973 15839
BEIDOU-3 IGSO-1 (C38)   
1 44204U 19023A   21077.85456000 -.00000186  00000-0  00000-0 0  9990
2 44204  55.8918  57.9008 0016413 206.3179 333.8783  1.00266382  7149
BEIDOU-2 G8             
1 44231U 19027A   21077.86075375 -.00000250  00000-0  00000-0 0  9999
2 44231   0.3970 316.4041 0006671 265.2998  49.2360  1.00267275  6858
BEIDOU-3 IGSO-2 (C39)   
1 44337U 19035A   21077.98133779 -.00000120  00000-0  00000+0 0  9996
2 44337  55.0874 175.8087 0017458 189.4884 271.0031  1.00259212  6489
BEIDOU-3 M23 (C45)      
1 44542U 19061A   21077.35096527  .00000038  00000-0  10000-3 0  9995
2 44542  54.7458 247.6265 0008072 344.8787  31.7259  1.86231236 10093
BEIDOU-3 M24 (C46)      
1 44543U 19061B   21077.48558344  .00000039  00000-0  10000-3 0  9991
2 44543  54.7444 247.5924 0004987 342.5381  35.0513  1.86231829 10106
BEIDOU-3 IGSO-3         
1 44709U 19073A   21077.55709229 -.00000136  00000-0  00000+0 0  9990
2 44709  57.9787 301.0887 0018866 189.9290 350.7265  1.00254298  5232
BEIDOU-3 M21            
1 44793U 19078A   21077.34788872 -.00000102  00000-0  10000-3 0  9994
2 44793  55.0598   6.3067 0007478 356.9462 122.8837  1.86232267  8954
BEIDOU-3 M22            
1 44794U 19078B   21076.97112325 -.00000101  00000-0  11758+2 0  9995
2 44794  55.0370   6.3227 0005596 348.9986 149.0366  1.86232831  8946
BEIDOU-3 M19            
1 44864U 19090A   21077.67614229  .00000002  00000-0  00000-0 0  9991
2 44864  55.1791 126.9202 0017028 264.8980 180.4280  1.86231769  8546
BEIDOU-3 M20            
1 44865U 19090B   21077.60963839  .00000002  00000-0  00000+0 0  9998
2 44865  55.1826 126.9512 0015669 279.2958 211.3681  1.86231750  8521
BEIDOU-3 G2             
1 45344U 20017A   21077.91963571 -.00000142  00000-0  00000-0 0  9996
2 45344   2.5510 334.0379 0002379  75.2052 178.5142  1.00272009  4054
BEIDOU-3 G3             
1 45807U 20040A   21078.03938366 -.00000354  00000-0  00000+0 0  9998
2 45807   2.4930 298.3986 0008561  17.9185 345.0294  1.00265339  2873
